start=new Date('2021-11-21T00:00:00.000Z').valueOf();
sats=[{"GP_ID":"190141378","DECAY_DATE":null,"CLASSIFICATION_TYPE":"U","PERIOD":"95.593","EPHEMERIS_TYPE":"0","ARG_OF_PERICENTER":"69.6048","OBJECT_NAME":"STARLINK-2154","SEMIMAJOR_AXIS":"6925.373","MEAN_MOTION_DOT":"-0.00000565","MEAN_MOTION":"15.06391911","ELEMENT_SET_NO":"999","CENTER_NAME":"EARTH","FILE":"3220049","APOAPSIS":"548.363","INCLINATION":"53.0573","MEAN_MOTION_DDOT":"0.0000000000000","BSTAR":"-0.00001905200000","TLE_LINE1":"1 47741U 21017V   21324.40219758 -.00000565  00000-0 -19052-4 0  9991","SITE":"AFETR","MEAN_ELEMENT_THEORY":"SGP4","RA_OF_ASC_NODE":"60.9232","RCS_SIZE":"LARGE","OBJECT_TYPE":"PAYLOAD","NORAD_CAT_ID":"47741","ECCENTRICITY":"0.00016240","TIME_SYSTEM":"UTC","REF_FRAME":"TEME","MEAN_ANOMALY":"290.5115","REV_AT_EPOCH":"4105","OBJECT_ID":"2021-017V","EPOCH":"2021-11-20T09:39:09.870912","TLE_LINE2":"2 47741  53.0573  60.9232 0001624  69.6048 290.5115 15.06391911 41055","LAUNCH_DATE":"2021-03-04","COUNTRY_CODE":"US","PERIAPSIS":"546.114"},{"GP_ID":"190142629","DECAY_DATE":null,"CLASSIFICATION_TYPE":"U","PERIOD":"95.593","EPHEMERIS_TYPE":"0","OBJECT_NAME":"STARLINK-2156","ARG_OF_PERICENTER":"73.5332","MEAN_MOTION_DOT":"-0.00000485","SEMIMAJOR_AXIS":"6925.376","MEAN_MOTION":"15.06390928","FILE":"3220049","APOAPSIS":"548.065","ELEMENT_SET_NO":"999","CENTER_NAME":"EARTH","INCLINATION":"53.0566","MEAN_MOTION_DDOT":"0.0000000000000","BSTAR":"-0.00001371000000","SITE":"AFETR","TLE_LINE1":"1 47742U 21017W   21324.34783639 -.00000485  00000-0 -13710-4 0  9995","MEAN_ELEMENT_THEORY":"SGP4","RA_OF_ASC_NODE":"51.1674","RCS_SIZE":"LARGE","OBJECT_TYPE":"PAYLOAD","NORAD_CAT_ID":"47742","ECCENTRICITY":"0.00011900","TIME_SYSTEM":"UTC","MEAN_ANOMALY":"286.5788","REF_FRAME":"TEME","REV_AT_EPOCH":"4123","OBJECT_ID":"2021-017W","EPOCH":"2021-11-20T08:20:53.064096","TLE_LINE2":"2 47742  53.0566  51.1674 0001190  73.5332 286.5788 15.06390928 41236","LAUNCH_DATE":"2021-03-04","PERIAPSIS":"546.417","COUNTRY_CODE":"US"},{"TIME_SYSTEM":"UTC","NORAD_CAT_ID":"47743","ECCENTRICITY":"0.00008250","OBJECT_TYPE":"PAYLOAD","RA_OF_ASC_NODE":"50.4348","RCS_SIZE":"LARGE","LAUNCH_DATE":"2021-03-04","COUNTRY_CODE":"US","PERIAPSIS":"546.642","EPOCH":"2021-11-20T12:09:05.971104","TLE_LINE2":"2 47743  53.0570  50.4348 0000825  79.8552 280.2530 15.06400231 41234","REV_AT_EPOCH":"4123","OBJECT_ID":"2021-017X","REF_FRAME":"TEME","MEAN_ANOMALY":"280.2530","SEMIMAJOR_AXIS":"6925.348","MEAN_MOTION_DOT":"0.00002224","MEAN_MOTION":"15.06400231","EPHEMERIS_TYPE":"0","ARG_OF_PERICENTER":"79.8552","OBJECT_NAME":"STARLINK-2157","CLASSIFICATION_TYPE":"U","PERIOD":"95.592","GP_ID":"190142380","DECAY_DATE":null,"MEAN_ELEMENT_THEORY":"SGP4","BSTAR":"0.00016815000000","TLE_LINE1":"1 47743U 21017X   21324.50631911  .00002224  00000-0  16815-3 0  9998","SITE":"AFETR","MEAN_MOTION_DDOT":"0.0000000000000","ELEMENT_SET_NO":"999","CENTER_NAME":"EARTH","FILE":"3220049","APOAPSIS":"547.784","INCLINATION":"53.0570"},{"MEAN_ELEMENT_THEORY":"SGP4","BSTAR":"-0.00000922450000","SITE":"AFETR","TLE_LINE1":"1 47744U 21017Y   21324.68325801 -.00000419  00000-0 -92245-5 0  9995","MEAN_MOTION_DDOT":"0.0000000000000","APOAPSIS":"548.065","FILE":"3220138","ELEMENT_SET_NO":"999","CENTER_NAME":"EARTH","INCLINATION":"53.0564","MEAN_MOTION_DOT":"-0.00000419","SEMIMAJOR_AXIS":"6925.398","MEAN_MOTION":"15.06383785","EPHEMERIS_TYPE":"0","OBJECT_NAME":"STARLINK-2158","ARG_OF_PERICENTER":"80.2716","CLASSIFICATION_TYPE":"U","PERIOD":"95.593","GP_ID":"190145704","DECAY_DATE":null,"LAUNCH_DATE":"2021-03-04","PERIAPSIS":"546.461","COUNTRY_CODE":"US","EPOCH":"2021-11-20T16:23:53.492064","TLE_LINE2":"2 47744  53.0564  49.6585 0001158  80.2716 279.8404 15.06383785 40607","REV_AT_EPOCH":"4060","OBJECT_ID":"2021-017Y","MEAN_ANOMALY":"279.8404","REF_FRAME":"TEME","TIME_SYSTEM":"UTC","NORAD_CAT_ID":"47744","ECCENTRICITY":"0.00011580","OBJECT_TYPE":"PAYLOAD","RA_OF_ASC_NODE":"49.6585","RCS_SIZE":"LARGE"},{"MEAN_ANOMALY":"283.6385","REF_FRAME":"TEME","OBJECT_ID":"2021-017Z","REV_AT_EPOCH":"4104","TLE_LINE2":"2 47745  53.0557  61.0262 0001201  76.4738 283.6385 15.06390867 41049","EPOCH":"2021-11-20T09:07:19.830432","PERIAPSIS":"546.410","COUNTRY_CODE":"US","LAUNCH_DATE":"2021-03-04","RCS_SIZE":"LARGE","RA_OF_ASC_NODE":"61.0262","OBJECT_TYPE":"PAYLOAD","ECCENTRICITY":"0.00012010","NORAD_CAT_ID":"47745","TIME_SYSTEM":"UTC","INCLINATION":"53.0557","APOAPSIS":"548.073","FILE":"3220049","ELEMENT_SET_NO":"999","CENTER_NAME":"EARTH","MEAN_MOTION_DDOT":"0.0000000000000","SITE":"AFETR","TLE_LINE1":"1 47745U 21017Z   21324.38009063 -.00000318  00000-0 -24765-5 0  9992","BSTAR":"-0.00000247650000","MEAN_ELEMENT_THEORY":"SGP4","DECAY_DATE":null,"GP_ID":"190141878","PERIOD":"95.593","CLASSIFICATION_TYPE":"U","OBJECT_NAME":"STARLINK-2159","ARG_OF_PERICENTER":"76.4738","EPHEMERIS_TYPE":"0","MEAN_MOTION":"15.06390867","MEAN_MOTION_DOT":"-0.00000318","SEMIMAJOR_AXIS":"6925.377"},{"MEAN_ELEMENT_THEORY":"SGP4","TLE_LINE1":"1 47746U 21017AA  21324.70444812 -.00001312  00000-0 -69184-4 0  9992","SITE":"AFETR","BSTAR":"-0.00006918400000","MEAN_MOTION_DDOT":"0.0000000000000","INCLINATION":"53.0562","ELEMENT_SET_NO":"999","CENTER_NAME":"EARTH","FILE":"3220138","APOAPSIS":"547.952","MEAN_MOTION":"15.06399642","SEMIMAJOR_AXIS":"6925.350","MEAN_MOTION_DOT":"-0.00001312","ARG_OF_PERICENTER":"80.4107","OBJECT_NAME":"STARLINK-2160","EPHEMERIS_TYPE":"0","PERIOD":"95.592","CLASSIFICATION_TYPE":"U","DECAY_DATE":null,"GP_ID":"190145707","COUNTRY_CODE":"US","PERIAPSIS":"546.477","LAUNCH_DATE":"2021-03-04","TLE_LINE2":"2 47746  53.0562  59.5440 0001065  80.4107 279.7002 15.06399642 40466","EPOCH":"2021-11-20T16:54:24.317568","OBJECT_ID":"2021-017AA","REV_AT_EPOCH":"4046","REF_FRAME":"TEME","MEAN_ANOMALY":"279.7002","TIME_SYSTEM":"UTC","ECCENTRICITY":"0.00010650","NORAD_CAT_ID":"47746","OBJECT_TYPE":"PAYLOAD","RCS_SIZE":"LARGE","RA_OF_ASC_NODE":"59.5440"},{"RA_OF_ASC_NODE":"50.1720","RCS_SIZE":"LARGE","OBJECT_TYPE":"PAYLOAD","NORAD_CAT_ID":"47747","ECCENTRICITY":"0.00012490","TIME_SYSTEM":"UTC","REF_FRAME":"TEME","MEAN_ANOMALY":"281.2577","REV_AT_EPOCH":"4058","OBJECT_ID":"2021-017AB","EPOCH":"2021-11-20T13:39:20.967552","TLE_LINE2":"2 47747  53.0562  50.1720 0001249  78.8553 281.2577 15.06394851 40580","LAUNCH_DATE":"2021-03-04","COUNTRY_CODE":"US","PERIAPSIS":"546.364","GP_ID":"190145708","DECAY_DATE":null,"CLASSIFICATION_TYPE":"U","PERIOD":"95.592","EPHEMERIS_TYPE":"0","ARG_OF_PERICENTER":"78.8553","OBJECT_NAME":"STARLINK-2161","SEMIMAJOR_AXIS":"6925.364","MEAN_MOTION_DOT":"-0.00000360","MEAN_MOTION":"15.06394851","ELEMENT_SET_NO":"999","CENTER_NAME":"EARTH","FILE":"3220138","APOAPSIS":"548.094","INCLINATION":"53.0562","MEAN_MOTION_DDOT":"0.0000000000000","BSTAR":"-0.00000530400000","TLE_LINE1":"1 47747U 21017AB  21324.56899268 -.00000360  00000-0 -53040-5 0  9993","SITE":"AFETR","MEAN_ELEMENT_THEORY":"SGP4"},{"TLE_LINE1":"1 47748U 21017AC  21324.62797003 -.00000397  00000-0 -77356-5 0  9991","SITE":"AFETR","BSTAR":"-0.00000773560000","MEAN_ELEMENT_THEORY":"SGP4","INCLINATION":"53.0565","ELEMENT_SET_NO":"999","CENTER_NAME":"EARTH","FILE":"3220138","APOAPSIS":"548.079","MEAN_MOTION_DDOT":"0.0000000000000","ARG_OF_PERICENTER":"77.5978","OBJECT_NAME":"STARLINK-2162","EPHEMERIS_TYPE":"0","MEAN_MOTION":"15.06389328","SEMIMAJOR_AXIS":"6925.381","MEAN_MOTION_DOT":"-0.00000397","DECAY_DATE":null,"GP_ID":"190145699","PERIOD":"95.593","CLASSIFICATION_TYPE":"U","TLE_LINE2":"2 47748  53.0565  49.9086 0001202  77.5978 282.5146 15.06389328 40591","EPOCH":"2021-11-20T15:04:16.610592","COUNTRY_CODE":"US","PERIAPSIS":"546.414","LAUNCH_DATE":"2021-03-04","REF_FRAME":"TEME","MEAN_ANOMALY":"282.5146","OBJECT_ID":"2021-017AC","REV_AT_EPOCH":"4059","ECCENTRICITY":"0.00012020","NORAD_CAT_ID":"47748","TIME_SYSTEM":"UTC","RCS_SIZE":"LARGE","RA_OF_ASC_NODE":"49.9086","OBJECT_TYPE":"PAYLOAD"},{"MEAN_MOTION_DDOT":"0.0000000000000","INCLINATION":"53.0569","ELEMENT_SET_NO":"999","CENTER_NAME":"EARTH","APOAPSIS":"548.077","FILE":"3220138","MEAN_ELEMENT_THEORY":"SGP4","TLE_LINE1":"1 47749U 21017AD  21324.64270101  .00000873  00000-0  77471-4 0  9993","SITE":"AFETR","BSTAR":"0.00007747100000","PERIOD":"95.592","CLASSIFICATION_TYPE":"U","DECAY_DATE":null,"GP_ID":"190146036","MEAN_MOTION":"15.06395209","SEMIMAJOR_AXIS":"6925.363","MEAN_MOTION_DOT":"0.00000873","ARG_OF_PERICENTER":"86.4280","OBJECT_NAME":"STARLINK-2163","EPHEMERIS_TYPE":"0","OBJECT_ID":"2021-017AD","REV_AT_EPOCH":"4059","REF_FRAME":"TEME","MEAN_ANOMALY":"273.6849","COUNTRY_CODE":"US","PERIAPSIS":"546.380","LAUNCH_DATE":"2021-03-04","TLE_LINE2":"2 47749  53.0569  49.8217 0001225  86.4280 273.6849 15.06395209 40597","EPOCH":"2021-11-20T15:25:29.367264","OBJECT_TYPE":"PAYLOAD","RCS_SIZE":"MEDIUM","RA_OF_ASC_NODE":"49.8217","TIME_SYSTEM":"UTC","ECCENTRICITY":"0.00012250","NORAD_CAT_ID":"47749"},{"MEAN_ELEMENT_THEORY":"SGP4","BSTAR":"0.00009909200000","SITE":"AFETR","TLE_LINE1":"1 47750U 21017AE  21324.62059091  .00001195  00000-0  99092-4 0  9997","MEAN_MOTION_DDOT":"0.0000000000000","APOAPSIS":"548.072","FILE":"3220154","ELEMENT_SET_NO":"999","CENTER_NAME":"EARTH","INCLINATION":"53.0578","MEAN_MOTION_DOT":"0.00001195","SEMIMAJOR_AXIS":"6925.367","MEAN_MOTION":"15.06394123","EPHEMERIS_TYPE":"0","OBJECT_NAME":"STARLINK-2164","ARG_OF_PERICENTER":"80.2023","CLASSIFICATION_TYPE":"U","PERIOD":"95.593","GP_ID":"190146046","DECAY_DATE":null,"LAUNCH_DATE":"2021-03-04","PERIAPSIS":"546.391","COUNTRY_CODE":"US","EPOCH":"2021-11-20T14:53:39.054624","TLE_LINE2":"2 47750  53.0578  49.9335 0001214  80.2023 279.9103 15.06394123 40592","REV_AT_EPOCH":"4059","OBJECT_ID":"2021-017AE","MEAN_ANOMALY":"279.9103","REF_FRAME":"TEME","TIME_SYSTEM":"UTC","NORAD_CAT_ID":"47750","ECCENTRICITY":"0.00012140","OBJECT_TYPE":"PAYLOAD","RA_OF_ASC_NODE":"49.9335","RCS_SIZE":"LARGE"}];
